[{"OBJECT_NAME":"OBJECT A","OBJECT_ID":"2023-085A","EPOCH":"2026-03-09T21:42:39.504096","MEAN_MOTION":15.28003151,"ECCENTRICITY":0.00073195,"INCLINATION":97.4858,"RA_OF_ASC_NODE":178.2033,"ARG_OF_PERICENTER":32.2499,"MEAN_ANOMALY":327.9186,"EPHEMERIS_TYPE":0,"CLASSIFICATION_TYPE":"U","NORAD_CAT_ID":57004,"ELEMENT_SET_NO":999,"REV_AT_EPOCH":15139,"BSTAR":0.00063583858,"MEAN_MOTION_DOT":0.0001733,"MEAN_MOTION_DDOT":0},{"OBJECT_NAME":"STARLINK-36038","OBJECT_ID":"2025-278P","EPOCH":"2026-03-09T12:13:33.166560","MEAN_MOTION":15.27579655,"ECCENTRICITY":0.00014362,"INCLINATION":43.0035,"RA_OF_ASC_NODE":115.2016,"ARG_OF_PERICENTER":258.053,"MEAN_ANOMALY":102.016,"EPHEMERIS_TYPE":0,"CLASSIFICATION_TYPE":"U","NORAD_CAT_ID":66804,"ELEMENT_SET_NO":999,"REV_AT_EPOCH":1518,"BSTAR":0.00094757059,"MEAN_MOTION_DOT":0.00025904,"MEAN_MOTION_DDOT":0}]
